{
  "type": "FeatureCollection",
  "features": [
    {
      "type": "Feature",
      "properties": {
        "norad_id": 55973,
        "name": "TIANMU-1 03",
        "group": "weather",
        "lat": -10.404794684157897,
        "lon": -42.35597407761333,
        "alt_km": 449.6603390832006,
        "timestamp": "2025-12-02T15:49:06.826518+00:00",
        "meta_object_name": "TIANMU-1 03",
        "meta_object_id": "2023-039A",
        "meta_epoch": "2025-12-02T07:12:00.701568",
        "meta_mean_motion": 15.40451718,
        "meta_eccentricity": 0.00045339,
        "meta_inclination": 97.5103,
        "meta_ra_of_asc_node": 138.6634,
        "meta_arg_of_pericenter": 91.1618,
        "meta_mean_anomaly": 269.0147,
        "meta_ephemeris_type": 0,
        "meta_classification_type": "U",
        "meta_norad_cat_id": 55973,
        "meta_element_set_no": 999,
        "meta_rev_at_epoch": 15045,
        "meta_bstar": 0.00044929979,
        "meta_mean_motion_dot": 0.00018134,
        "meta_mean_motion_ddot": 0,
        "tle_line1": "1 55973U 23039A   25336.30000812  .00018134  00000+0  44930-3 0  9998",
        "tle_line2": "2 55973  97.5103 138.6634 0004533  91.1618 269.0147 15.40451718150458"
      },
      "geometry": {
        "type": "Point",
        "coordinates": [
          -42.35597407761333,
          -10.404794684157897
        ]
      }
    },
    {
      "type": "Feature",
      "properties": {
        "norad_id": 55974,
        "name": "TIANMU-1 04",
        "group": "weather",
        "lat": -66.68027348931963,
        "lon": 156.03149223516817,
        "alt_km": 454.2501706290368,
        "timestamp": "2025-12-02T15:49:06.826529+00:00",
        "meta_object_name": "TIANMU-1 04",
        "meta_object_id": "2023-039B",
        "meta_epoch": "2025-12-02T08:19:10.350048",
        "meta_mean_motion": 15.40782167,
        "meta_eccentricity": 0.00052524,
        "meta_inclination": 97.5034,
        "meta_ra_of_asc_node": 137.9068,
        "meta_arg_of_pericenter": 87.0891,
        "meta_mean_anomaly": 273.0956,
        "meta_ephemeris_type": 0,
        "meta_classification_type": "U",
        "meta_norad_cat_id": 55974,
        "meta_element_set_no": 999,
        "meta_rev_at_epoch": 15046,
        "meta_bstar": 0.00046673526,
        "meta_mean_motion_dot": 0.00019052,
        "meta_mean_motion_ddot": 0,
        "tle_line1": "1 55974U 23039B   25336.34664757  .00019052  00000+0  46674-3 0  9994",
        "tle_line2": "2 55974  97.5034 137.9068 0005252  87.0891 273.0956 15.40782167150460"
      },
      "geometry": {
        "type": "Point",
        "coordinates": [
          156.03149223516817,
          -66.68027348931963
        ]
      }
    },
    {
      "type": "Feature",
      "properties": {
        "norad_id": 55975,
        "name": "TIANMU-1 05",
        "group": "weather",
        "lat": -22.2539383369503,
        "lon": 141.81294940160683,
        "alt_km": 452.1966725600678,
        "timestamp": "2025-12-02T15:49:06.826539+00:00",
        "meta_object_name": "TIANMU-1 05",
        "meta_object_id": "2023-039C",
        "meta_epoch": "2025-12-02T08:07:14.590848",
        "meta_mean_motion": 15.40411209,
        "meta_eccentricity": 0.00043205,
        "meta_inclination": 97.508,
        "meta_ra_of_asc_node": 138.3901,
        "meta_arg_of_pericenter": 107.6798,
        "meta_mean_anomaly": 252.492,
        "meta_ephemeris_type": 0,
        "meta_classification_type": "U",
        "meta_norad_cat_id": 55975,
        "meta_element_set_no": 999,
        "meta_rev_at_epoch": 15044,
        "meta_bstar": 0.00045615439,
        "meta_mean_motion_dot": 0.00018387,
        "meta_mean_motion_ddot": 0,
        "tle_line1": "1 55975U 23039C   25336.33836332  .00018387  00000+0  45615-3 0  9998",
        "tle_line2": "2 55975  97.5080 138.3901 0004320 107.6798 252.4920 15.40411209150449"
      },
      "geometry": {
        "type": "Point",
        "coordinates": [
          141.81294940160683,
          -22.2539383369503
        ]
      }
    },
    {
      "type": "Feature",
      "properties": {
        "norad_id": 55976,
        "name": "TIANMU-1 06",
        "group": "weather",
        "lat": -78.86676911878853,
        "lon": -178.73431407852624,
        "alt_km": 454.1395521219738,
        "timestamp": "2025-12-02T15:49:06.826549+00:00",
        "meta_object_name": "TIANMU-1 06",
        "meta_object_id": "2023-039D",
        "meta_epoch": "2025-12-02T06:49:17.822784",
        "meta_mean_motion": 15.40832565,
        "meta_eccentricity": 0.00046612,
        "meta_inclination": 97.5092,
        "meta_ra_of_asc_node": 138.7911,
        "meta_arg_of_pericenter": 103.4794,
        "meta_mean_anomaly": 256.6971,
        "meta_ephemeris_type": 0,
        "meta_classification_type": "U",
        "meta_norad_cat_id": 55976,
        "meta_element_set_no": 999,
        "meta_rev_at_epoch": 15045,
        "meta_bstar": 0.00046153336,
        "meta_mean_motion_dot": 0.00018868,
        "meta_mean_motion_ddot": 0,
        "tle_line1": "1 55976U 23039D   25336.28423406  .00018868  00000+0  46153-3 0  9999",
        "tle_line2": "2 55976  97.5092 138.7911 0004661 103.4794 256.6971 15.40832565150451"
      },
      "geometry": {
        "type": "Point",
        "coordinates": [
          -178.73431407852624,
          -78.86676911878853
        ]
      }
    },
    {
      "type": "Feature",
      "properties": {
        "norad_id": 56232,
        "name": "FENGYUN 3G",
        "group": "weather",
        "lat": -14.324386887709291,
        "lon": 111.82160783517924,
        "alt_km": 411.9883377082042,
        "timestamp": "2025-12-02T15:49:06.826558+00:00",
        "meta_object_name": "FENGYUN 3G",
        "meta_object_id": "2023-055A",
        "meta_epoch": "2025-12-02T07:14:40.519104",
        "meta_mean_motion": 15.52689854,
        "meta_eccentricity": 0.00092347,
        "meta_inclination": 49.9948,
        "meta_ra_of_asc_node": 281.2798,
        "meta_arg_of_pericenter": 98.19,
        "meta_mean_anomaly": 262.0115,
        "meta_ephemeris_type": 0,
        "meta_classification_type": "U",
        "meta_norad_cat_id": 56232,
        "meta_element_set_no": 999,
        "meta_rev_at_epoch": 14940,
        "meta_bstar": 0.00059076858,
        "meta_mean_motion_dot": 0.00036934,
        "meta_mean_motion_ddot": 0,
        "tle_line1": "1 56232U 23055A   25336.30185786  .00036934  00000+0  59077-3 0  9995",
        "tle_line2": "2 56232  49.9948 281.2798 0009234  98.1900 262.0115 15.52689854149403"
      },
      "geometry": {
        "type": "Point",
        "coordinates": [
          111.82160783517924,
          -14.324386887709291
        ]
      }
    },
    {
      "type": "Feature",
      "properties": {
        "norad_id": 57166,
        "name": "METEOR-M2 3",
        "group": "weather",
        "lat": 75.48647455486551,
        "lon": -5.592013264656912,
        "alt_km": 802.231175154342,
        "timestamp": "2025-12-02T15:49:06.826568+00:00",
        "meta_object_name": "METEOR-M2 3",
        "meta_object_id": "2023-091A",
        "meta_epoch": "2025-12-02T07:01:15.436992",
        "meta_mean_motion": 14.24024014,
        "meta_eccentricity": 0.0004457,
        "meta_inclination": 98.6393,
        "meta_ra_of_asc_node": 30.0136,
        "meta_arg_of_pericenter": 36.7373,
        "meta_mean_anomaly": 323.4111,
        "meta_ephemeris_type": 0,
        "meta_classification_type": "U",
        "meta_norad_cat_id": 57166,
        "meta_element_set_no": 999,
        "meta_rev_at_epoch": 12649,
        "meta_bstar": 3.7030668e-05,
        "meta_mean_motion_dot": 4.2e-07,
        "meta_mean_motion_ddot": 0,
        "tle_line1": "1 57166U 23091A   25336.29253978  .00000042  00000+0  37031-4 0  9997",
        "tle_line2": "2 57166  98.6393  30.0136 0004457  36.7373 323.4111 14.24024014126496"
      },
      "geometry": {
        "type": "Point",
        "coordinates": [
          -5.592013264656912,
          75.48647455486551
        ]
      }
    },
    {
      "type": "Feature",
      "properties": {
        "norad_id": 57399,
        "name": "TIANMU-1 07",
        "group": "weather",
        "lat": 77.61306838829572,
        "lon": -117.61434185080512,
        "alt_km": 471.2206793518326,
        "timestamp": "2025-12-02T15:49:06.826579+00:00",
        "meta_object_name": "TIANMU-1 07",
        "meta_object_id": "2023-101A",
        "meta_epoch": "2025-12-02T05:57:05.169600",
        "meta_mean_motion": 15.27830862,
        "meta_eccentricity": 0.0005569,
        "meta_inclination": 97.2899,
        "meta_ra_of_asc_node": 26.3307,
        "meta_arg_of_pericenter": 108.2946,
        "meta_mean_anomaly": 251.89,
        "meta_ephemeris_type": 0,
        "meta_classification_type": "U",
        "meta_norad_cat_id": 57399,
        "meta_element_set_no": 999,
        "meta_rev_at_epoch": 13155,
        "meta_bstar": 0.00033033458,
        "meta_mean_motion_dot": 8.91e-05,
        "meta_mean_motion_ddot": 0,
        "tle_line1": "1 57399U 23101A   25336.24797650  .00008910  00000+0  33033-3 0  9991",
        "tle_line2": "2 57399  97.2899  26.3307 0005569 108.2946 251.8900 15.27830862131557"
      },
      "geometry": {
        "type": "Point",
        "coordinates": [
          -117.61434185080512,
          77.61306838829572
        ]
      }
    }
  ]
}